{
"type": "FeatureCollection",
"name": "stops",
"crs": { "type": "name", "properties": { "name": "urn:ogc:def:crs:OGC:1.3:CRS84" } },
"features": [
{ "type": "Feature", "properties": { "fid": 1, "locality_name": "Reyðarártindur pluton", "summary": "Microgranite pluton with visible conduit", "photo": "images/reydararti-emma-overlay.jpg", "link": "pages/reydarartindur.html", "citation": "Rhodes et al. 2021; 2024; Twomey 2023; Padilla 2015; Burchardt 2025 (LASI field guide)", "age": "7,3-7,4 Ma", "details": "The granitic pluton of Reyðarártindur is exceptionally well exposed and easily accessible. It displays a fairly homogeneous granitic composition except in a mixing zone along the river bed. In the mixing zone other compositions of granite intermingle with the main granite body. \n\nAnother exceptional piece to this story, is the rítutungnafjall conduit; a dyke can be seen eminating from the main body fo the pluton into the basalts above. This is thought to be a conduit leading to the surface, the eruption caused downsagging of the surrounding basalts as the magma was released.\n\nA lack of cooling contacts throughout the pluton indicates rapid magma emplacement and a thermal numerical model suggests that the volume of potentially eruptible magma would have halved within 1000 years (Rhodes et al., 2021). This implies that the connection between the enclave zone and the conduits only existed for a few hundred years. Hence, the time between pluton construction and eruption was rapid, probably in the range of a few hundred years.", "paper_link": "https://agupubs.onlinelibrary.wiley.com/doi/full/10.1029/2021GC009999" }, "geometry": { "type": "Point", "coordinates": [ -14.765125707000102, 64.418943939516794 ] } },
{ "type": "Feature", "properties": { "fid": 2, "locality_name": "Eystrahorn mixing complex", "summary": "Mixing and mingling between mafic and silicic magmas", "photo": "images/eystrahorn.JPEG", "link": "pages/eystrahorn.html", "citation": "Blake 1966; Furman et al. 1992; Weidendorfer et al. 2014; ", "age": "~6.5 Ma", "details": "Mixing and mingling in a pluton: here we have an exceptional view of the processes of mixing between mafic and silicic magmas.\n\nThe area, often called a net-veined complex, displays a complex relationship between gabbroic and granitic melts. In some places brittle fracturing and veining can be seen, and in other areas mixing textures indicate both magmas were hot and able to 'mingle'.\n\nThe pluton here appears to have been emplaced in layers, in the distance up the valley, in good conditions, the layering of the gabbro can be seen up Hvalnesfjall." }, "geometry": { "type": "Point", "coordinates": [ -14.537898901263979, 64.422695656472953 ] } },
{ "type": "Feature", "properties": { "fid": 3, "locality_name": "Hvalnes", "summary": "Mixing and mingling complex continued; Further examples of the mixing complex. If time allows we may visit though the access is a little more awkward.", "photo": "images/hvalnes-mix.JPEG", "link": null, "citation": null, "age": "6,5 Ma", "details": "" }, "geometry": { "type": "Point", "coordinates": [ -14.540527972039769, 64.402587815742834 ] } },
{ "type": "Feature", "properties": { "fid": 4, "locality_name": "Hvalnes gabbro ", "summary": "Layered gabbro complex", "photo": "images/hvalnes-layers.JPEG", "link": "pages/hvalnes.html", "citation": "Thorarinsson and Tegner, 2009", "age": "6,5 Ma", "details": "Copied from Steffi's LASI guide:\n\nThe gabbro can be divided into at least eight macrorhythmic units whose bases are defined by 2–10 m thick, coarse grained, olivine-bearing melanocratic layers showing increases in Cr2O3 in magnetite and clinopyroxene and Mg# in clinopyroxene and wholerock Mg# relative to underlying units. These melanocratic layers are interpreted as the crystalline products following primitive magma replenishment and mixing with residual magma. Steady decreases in Mg# in clinopyroxene up-section in some macrorhythmic units, coupled with decreases in whole-rock Mg# and Cr2O3 in magnetite, indicate that periods of normal fractionation in some cases followed recharge." }, "geometry": { "type": "Point", "coordinates": [ -14.582838484670265, 64.415702914461889 ] } },
{ "type": "Feature", "properties": { "fid": 5, "locality_name": "Álftafjörður volcano", "summary": "Miocene volcano, caldera complex of ignimbrites, tuffs, lavas, and volcaniclastics", "photo": null, "link": null, "citation": "Blake 1966", "age": "~8 Ma", "details": "The Miocene age Álftafjörður volcano is exposed along the main road, which cuts through the centre of the volcano's now exposed caldera complex. The area is well vegetated and covered by scree, so the main units visible are lavas and intrusions in the caldera. Though by the coast there are some beautiful examples of ignimbrites and cross cutting dykes and sheets. \n\nTo the north, the volcanic system has a prominent and well exposed dyke swarm. " }, "geometry": { "type": "Point", "coordinates": [ -14.547878884721205, 64.530025358999112 ] } },
{ "type": "Feature", "properties": { "fid": 6, "locality_name": "Álftafjörður dyke swarm", "summary": "Dyke swarm exposures and view to Berunes", "photo": "images/berunes.jpg", "link": null, "citation": "Paquet et al. 1007; Gallagher 2013; Urbani et al. 2015", "age": "~8 Ma", "details": "From Steffi's LASI guide:\nRegional dykes contribute significantly to the growth of the crust. Careful mapping of the dykes in the regional dyke swarms in eastern Iceland show that dykes accommodated about 10% to crustal extension and that dykes within the swarms occur in clusters (Paquet et al., 2007).\n\nThe dyke swarm of the Álftafjörður volcanic system is particularly well exposed along the eastern parts of the fjords (Figs. F3.17-19). Near Djupivogur at Teigahorn, large cavities in the andesitic lava hold formidable specimens of zeolites, calcium carbonate and quartz minerals, a site that has provided specimens to the most illustrious museums of Europe. The secondary minerals that are layered, revel a complex story of the geothermal effects following 1) a volcanic event, 2) burial alteration, and 3) the intrusion of the Álftafjörður dyke swarm. " }, "geometry": { "type": "Point", "coordinates": [ -14.306375822271816, 64.661398769598847 ] } },
{ "type": "Feature", "properties": { "fid": 7, "locality_name": "Teigarhorn", "summary": "Zeolite locality", "photo": null, "link": null, "citation": null, "age": null, "details": null }, "geometry": { "type": "Point", "coordinates": [ -14.344592105983891, 64.675751296768354 ] } },
{ "type": "Feature", "properties": { "fid": 8, "locality_name": "Breiðdalur deformation", "summary": "Small scale deformation by a shallow (<1 km) intrusion", "photo": "images/breidd-updome.jpg", "link": null, "citation": "", "age": "~9 Ma", "details": "A small updoming event seen in the Miocene stratigraphy, essentially forming a small cryptodome. The intrusion istself is not visible, but the small flexure of the lavas is easily visible from the northern side of Berufjörður." }, "geometry": { "type": "Point", "coordinates": [ -14.504336609400584, 64.786233903526707 ] } },
{ "type": "Feature", "properties": { "fid": 9, "locality_name": "Blábjörg", "summary": "Ignimbrite: coastal exposure of fiamme and lithic bearing ignimbrite.", "photo": null, "link": null, "citation": null, "age": "~10,5 Ma", "details": "Blábjörg ignimbrite formed around 10.5 Ma, the ignimbrite is wll exposed, at the coast one can view the base contact with 'rip-up' clasts visible. \n\nUp dip it is also possible to see the ignimbrite thinning into the distance. There are some small fault that cut through the stratigraphy, giving a stepped appearance to the beautiful green-blue layer." }, "geometry": { "type": "Point", "coordinates": [ -14.313876434436541, 64.706589320180399 ] } },
{ "type": "Feature", "properties": { "fid": 10, "locality_name": "Streitishvarf dike", "summary": "Mixing in a dike", "photo": "images/streitishvarf.jpg", "link": "pages/streitishvarf.html", "citation": "Askew et al 2026", "age": "10.7 Ma", "details": "The Streitishvarf composite dyke in eastern Iceland preserves a well-exposed record of progressive magma mixing between mafic and silicic magmas. Field, petrographic, and whole-rock geochemical data reveal a series of discrete zones, from basaltic margins through hybrid andesitic–dacitic zones to an enclave-bearing rhyolitic core, each representing a separate stage of magma mixing. These zones are sharply bounded and chemically distinct, indicating that mixing occurred in stages prior to emplacement. Enclave morphologies, crystal textures, and crystal zoning patterns suggest variable degrees of mingling and thermal equilibration, with hybridization progressing over time. The structure of the dyke and its subsidiary branches records how magma propagated through the crust, exploiting early feeder pathways before stabilizing into a composite intrusion. Streitishvarf thus captures a record of the internal evolution of a magma mixing system: a series of partially mixed zones, preserving evidence of their origins, interactions, and timing, frozen mid-process. This study demonstrates that magma mixing can occur as a series of episodic but discrete events, and is a process that does not require a homogenized mixed magma body. Thus, the Streitishvarf dyke provides a cross-sectional snapshot of a hybridization process frozen mid-transition. As such, it offers a valuable case study for understanding hybrid dyke formation, evolution of crustally stored magma and silicic melt mobilization in rift settings.", "paper_link": "https://link.springer.com/article/10.1007/s00445-026-02021-4" }, "geometry": { "type": "Point", "coordinates": [ -13.98713481227656, 64.734059335603817 ] } }
]
}
